{"type":"FeatureCollection","features":[{"type":"Feature","geometry":{"type":"Point","coordinates":[-77.22716,38.88363]},"properties":{"name":"Dunn Loring-Merrifield","lines":"orange"}},{"type":"Feature","geometry":{"type":"Point","coordinates":[-77.27262,38.87761]},"properties":{"name":"Vienna/Fairfax-Gmu","lines":"orange"}},{"type":"Feature","geometry":{"type":"Point","coordinates":[-77.085,38.95949]},"properties":{"name":"Friendship Heights","lines":"red"}},{"type":"Feature","geometry":{"type":"Point","coordinates":[-77.05954,38.86189]},"properties":{"name":"Pentagon City","lines":"blue, yellow"}},{"type":"Feature","geometry":{"type":"Point","coordinates":[-77.02813,38.89319]},"properties":{"name":"Federal Triangle","lines":"blue, orange, silver"}},{"type":"Feature","geometry":{"type":"Point","coordinates":[-77.36019,38.95278]},"properties":{"name":"Reston Town Center","lines":"silver"}},{"type":"Feature","geometry":{"type":"Point","coordinates":[-77.38518,38.95283]},"properties":{"name":"Herndon","lines":"silver"}},{"type":"Feature","geometry":{"type":"Point","coordinates":[-77.4153,38.96077]},"properties":{"name":"Innovation Center","lines":"silver"}},{"type":"Feature","geometry":{"type":"Point","coordinates":[-77.44815,38.95579]},"properties":{"name":"Washington Dulles International Airport","lines":"silver"}},{"type":"Feature","geometry":{"type":"Point","coordinates":[-77.46069,38.99205]},"properties":{"name":"Loudoun Gateway","lines":"silver"}},{"type":"Feature","geometry":{"type":"Point","coordinates":[-77.49154,39.00529]},"properties":{"name":"Ashburn","lines":"silver"}},{"type":"Feature","geometry":{"type":"Point","coordinates":[-77.04641,38.83401]},"properties":{"name":"Potomac Yard","lines":"blue, yellow"}},{"type":"Feature","geometry":{"type":"Point","coordinates":[-76.91147,38.82645]},"properties":{"name":"Branch Ave","lines":"green"}},{"type":"Feature","geometry":{"type":"Point","coordinates":[-77.05367,38.81415]},"properties":{"name":"Braddock Road","lines":"blue, yellow"}},{"type":"Feature","geometry":{"type":"Point","coordinates":[-77.06081,38.80659]},"properties":{"name":"King St-Old Town","lines":"blue, yellow"}},{"type":"Feature","geometry":{"type":"Point","coordinates":[-77.07088,38.80043]},"properties":{"name":"Eisenhower Ave","lines":"yellow"}},{"type":"Feature","geometry":{"type":"Point","coordinates":[-77.07521,38.79392]},"properties":{"name":"Huntington","lines":"yellow"}},{"type":"Feature","geometry":{"type":"Point","coordinates":[-76.99537,38.86297]},"properties":{"name":"Anacostia","lines":"green"}},{"type":"Feature","geometry":{"type":"Point","coordinates":[-76.996,38.88463]},"properties":{"name":"Eastern Market","lines":"blue, orange, silver"}},{"type":"Feature","geometry":{"type":"Point","coordinates":[-76.9855,38.88127]},"properties":{"name":"Potomac Ave","lines":"blue, orange, silver"}},{"type":"Feature","geometry":{"type":"Point","coordinates":[-76.97709,38.88672]},"properties":{"name":"Stadium-Armory","lines":"blue, orange, silver"}},{"type":"Feature","geometry":{"type":"Point","coordinates":[-76.99594,38.92107]},"properties":{"name":"Rhode Island Ave-Brentwood","lines":"red"}},{"type":"Feature","geometry":{"type":"Point","coordinates":[-76.94675,38.8992]},"properties":{"name":"Minnesota Ave","lines":"orange"}},{"type":"Feature","geometry":{"type":"Point","coordinates":[-77.06299,38.94327]},"properties":{"name":"Van Ness-Udc","lines":"red"}},{"type":"Feature","geometry":{"type":"Point","coordinates":[-77.05804,38.93477]},"properties":{"name":"Cleveland Park","lines":"red"}},{"type":"Feature","geometry":{"type":"Point","coordinates":[-77.24156,38.92896]},"properties":{"name":"Spring Hill","lines":"silver"}},{"type":"Feature","geometry":{"type":"Point","coordinates":[-77.23388,38.92096]},"properties":{"name":"Greensboro","lines":"silver"}},{"type":"Feature","geometry":{"type":"Point","coordinates":[-77.22172,38.92068]},"properties":{"name":"Tysons","lines":"silver"}},{"type":"Feature","geometry":{"type":"Point","coordinates":[-77.21008,38.92453]},"properties":{"name":"Mclean","lines":"silver"}},{"type":"Feature","geometry":{"type":"Point","coordinates":[-76.87184,38.94779]},"properties":{"name":"New Carrollton","lines":"orange"}},{"type":"Feature","geometry":{"type":"Point","coordinates":[-76.8912,38.93351]},"properties":{"name":"Landover","lines":"orange"}},{"type":"Feature","geometry":{"type":"Point","coordinates":[-76.91663,38.91664]},"properties":{"name":"Cheverly","lines":"orange"}},{"type":"Feature","geometry":{"type":"Point","coordinates":[-77.00302,38.90702]},"properties":{"name":"Noma-Gallaudet U","lines":"red"}},{"type":"Feature","geometry":{"type":"Point","coordinates":[-77.07091,38.89599]},"properties":{"name":"Rosslyn","lines":"blue, orange, silver"}},{"type":"Feature","geometry":{"type":"Point","coordinates":[-77.06281,38.88469]},"properties":{"name":"Arlington Cemetery","lines":"blue"}},{"type":"Feature","geometry":{"type":"Point","coordinates":[-77.04342,38.90961]},"properties":{"name":"Dupont Circle","lines":"red"}},{"type":"Feature","geometry":{"type":"Point","coordinates":[-77.05372,38.86947]},"properties":{"name":"Pentagon","lines":"blue, yellow"}},{"type":"Feature","geometry":{"type":"Point","coordinates":[-77.05029,38.85791]},"properties":{"name":"Crystal City","lines":"blue, yellow"}},{"type":"Feature","geometry":{"type":"Point","coordinates":[-77.00509,38.87649]},"properties":{"name":"Navy Yard-Ballpark","lines":"green"}},{"type":"Feature","geometry":{"type":"Point","coordinates":[-77.03364,38.90134]},"properties":{"name":"Mcpherson Sq","lines":"blue, orange, silver"}},{"type":"Feature","geometry":{"type":"Point","coordinates":[-76.97506,38.84109]},"properties":{"name":"Southern Avenue","lines":"green"}},{"type":"Feature","geometry":{"type":"Point","coordinates":[-77.07959,38.94886]},"properties":{"name":"Tenleytown-Au","lines":"red"}},{"type":"Feature","geometry":{"type":"Point","coordinates":[-77.1891,38.90079]},"properties":{"name":"West Falls Church","lines":"orange"}},{"type":"Feature","geometry":{"type":"Point","coordinates":[-77.34006,38.94774]},"properties":{"name":"Wiehle-Reston East","lines":"silver"}},{"type":"Feature","geometry":{"type":"Point","coordinates":[-77.01818,38.97609]},"properties":{"name":"Takoma","lines":"red"}},{"type":"Feature","geometry":{"type":"Point","coordinates":[-77.05356,39.06179]},"properties":{"name":"Glenmont","lines":"red"}},{"type":"Feature","geometry":{"type":"Point","coordinates":[-77.05011,39.03753]},"properties":{"name":"Wheaton","lines":"red"}},{"type":"Feature","geometry":{"type":"Point","coordinates":[-77.04292,39.01496]},"properties":{"name":"Forest Glen","lines":"red"}},{"type":"Feature","geometry":{"type":"Point","coordinates":[-77.03102,38.99396]},"properties":{"name":"Silver Spring","lines":"red"}},{"type":"Feature","geometry":{"type":"Point","coordinates":[-76.99454,38.93322]},"properties":{"name":"Brookland-Cua","lines":"red"}},{"type":"Feature","geometry":{"type":"Point","coordinates":[-76.93526,38.90819]},"properties":{"name":"Deanwood","lines":"orange"}},{"type":"Feature","geometry":{"type":"Point","coordinates":[-77.16463,39.11994]},"properties":{"name":"Shady Grove","lines":"red"}},{"type":"Feature","geometry":{"type":"Point","coordinates":[-77.14613,39.08433]},"properties":{"name":"Rockville","lines":"red"}},{"type":"Feature","geometry":{"type":"Point","coordinates":[-77.12082,39.06248]},"properties":{"name":"Twinbrook","lines":"red"}},{"type":"Feature","geometry":{"type":"Point","coordinates":[-77.11283,39.04816]},"properties":{"name":"North Bethesda","lines":"red"}},{"type":"Feature","geometry":{"type":"Point","coordinates":[-77.10385,39.02928]},"properties":{"name":"Grosvenor-Strathmore","lines":"red"}},{"type":"Feature","geometry":{"type":"Point","coordinates":[-77.09695,39.00006]},"properties":{"name":"Medical Center","lines":"red"}},{"type":"Feature","geometry":{"type":"Point","coordinates":[-77.09413,38.9844]},"properties":{"name":"Bethesda","lines":"red"}},{"type":"Feature","geometry":{"type":"Point","coordinates":[-77.05028,38.90071]},"properties":{"name":"Foggy Bottom-Gwu","lines":"blue, orange, silver"}},{"type":"Feature","geometry":{"type":"Point","coordinates":[-77.08713,38.89018]},"properties":{"name":"Court House","lines":"orange, silver"}},{"type":"Feature","geometry":{"type":"Point","coordinates":[-77.0954,38.88671]},"properties":{"name":"Clarendon","lines":"orange, silver"}},{"type":"Feature","geometry":{"type":"Point","coordinates":[-77.15689,38.88596]},"properties":{"name":"East Falls Church","lines":"orange, silver"}},{"type":"Feature","geometry":{"type":"Point","coordinates":[-77.10298,38.88337]},"properties":{"name":"Virginia Square-Gmu","lines":"orange, silver"}},{"type":"Feature","geometry":{"type":"Point","coordinates":[-77.11317,38.88219]},"properties":{"name":"Ballston-Mu","lines":"orange, silver"}},{"type":"Feature","geometry":{"type":"Point","coordinates":[-77.0407,38.90132]},"properties":{"name":"Farragut West","lines":"blue, orange, silver"}},{"type":"Feature","geometry":{"type":"Point","coordinates":[-77.0397,38.90321]},"properties":{"name":"Farragut North","lines":"red"}},{"type":"Feature","geometry":{"type":"Point","coordinates":[-77.05242,38.92509]},"properties":{"name":"Woodley Park-Zoo/Adams Morgan","lines":"red"}},{"type":"Feature","geometry":{"type":"Point","coordinates":[-77.02807,38.88803]},"properties":{"name":"Smithsonian","lines":"blue, orange, silver"}},{"type":"Feature","geometry":{"type":"Point","coordinates":[-77.02192,38.89367]},"properties":{"name":"Archives-Navy Memorial-Penn Quarter","lines":"green, yellow"}},{"type":"Feature","geometry":{"type":"Point","coordinates":[-77.01751,38.87647]},"properties":{"name":"Waterfront","lines":"green"}},{"type":"Feature","geometry":{"type":"Point","coordinates":[-77.04404,38.85342]},"properties":{"name":"Ronald Reagan Washington National Airport","lines":"blue, yellow"}},{"type":"Feature","geometry":{"type":"Point","coordinates":[-77.01587,38.88508]},"properties":{"name":"Federal Center Sw","lines":"blue, orange, silver"}},{"type":"Feature","geometry":{"type":"Point","coordinates":[-77.01664,38.8961]},"properties":{"name":"Judiciary Square","lines":"red"}},{"type":"Feature","geometry":{"type":"Point","coordinates":[-77.00514,38.88507]},"properties":{"name":"Capitol South","lines":"blue, orange, silver"}},{"type":"Feature","geometry":{"type":"Point","coordinates":[-77.02808,38.89832]},"properties":{"name":"Metro Center","lines":"red, blue, orange, silver"}},{"type":"Feature","geometry":{"type":"Point","coordinates":[-77.02192,38.89832]},"properties":{"name":"Gallery Pl-Chinatown","lines":"red, green, yellow"}},{"type":"Feature","geometry":{"type":"Point","coordinates":[-77.02192,38.90644]},"properties":{"name":"Mt Vernon Sq 7Th St-Convention Center","lines":"green, yellow"}},{"type":"Feature","geometry":{"type":"Point","coordinates":[-77.00742,38.89777]},"properties":{"name":"Union Station","lines":"red"}},{"type":"Feature","geometry":{"type":"Point","coordinates":[-76.98851,38.84567]},"properties":{"name":"Congress Heights","lines":"green"}},{"type":"Feature","geometry":{"type":"Point","coordinates":[-76.95626,38.85131]},"properties":{"name":"Naylor Road","lines":"green"}},{"type":"Feature","geometry":{"type":"Point","coordinates":[-76.93187,38.84397]},"properties":{"name":"Suitland","lines":"green"}},{"type":"Feature","geometry":{"type":"Point","coordinates":[-76.93837,38.89098]},"properties":{"name":"Benning Road","lines":"blue, silver"}},{"type":"Feature","geometry":{"type":"Point","coordinates":[-76.91106,39.01115]},"properties":{"name":"Greenbelt","lines":"green"}},{"type":"Feature","geometry":{"type":"Point","coordinates":[-76.84455,38.90061]},"properties":{"name":"Downtown Largo","lines":"blue, silver"}},{"type":"Feature","geometry":{"type":"Point","coordinates":[-76.96958,38.95505]},"properties":{"name":"West Hyattsville","lines":"green"}},{"type":"Feature","geometry":{"type":"Point","coordinates":[-77.02191,38.91348]},"properties":{"name":"Shaw-Howard U","lines":"green"}},{"type":"Feature","geometry":{"type":"Point","coordinates":[-76.91181,38.88947]},"properties":{"name":"Capitol Heights","lines":"blue, silver"}},{"type":"Feature","geometry":{"type":"Point","coordinates":[-77.12911,38.79932]},"properties":{"name":"Van Dorn Street","lines":"blue"}},{"type":"Feature","geometry":{"type":"Point","coordinates":[-77.16797,38.76653]},"properties":{"name":"Franconia-Springfield","lines":"blue"}},{"type":"Feature","geometry":{"type":"Point","coordinates":[-77.02191,38.88485]},"properties":{"name":"L'Enfant Plaza","lines":"green, yellow, orange, blue, silver"}},{"type":"Feature","geometry":{"type":"Point","coordinates":[-77.03255,38.92785]},"properties":{"name":"Columbia Heights","lines":"green"}},{"type":"Feature","geometry":{"type":"Point","coordinates":[-76.92813,38.97864]},"properties":{"name":"College Park-U Of Md","lines":"green"}},{"type":"Feature","geometry":{"type":"Point","coordinates":[-77.02346,38.93744]},"properties":{"name":"Georgia Ave-Petworth","lines":"green"}},{"type":"Feature","geometry":{"type":"Point","coordinates":[-76.95588,38.96539]},"properties":{"name":"Hyattsville Crossing","lines":"green"}},{"type":"Feature","geometry":{"type":"Point","coordinates":[-77.0275,38.91701]},"properties":{"name":"U Street/African-Amer Civil War Memorial/Cardozo","lines":"green"}},{"type":"Feature","geometry":{"type":"Point","coordinates":[-76.89411,38.88676]},"properties":{"name":"Addison Road-Seat Pleasant","lines":"blue, silver"}},{"type":"Feature","geometry":{"type":"Point","coordinates":[-77.00221,38.95185]},"properties":{"name":"Fort Totten","lines":"red, green"}},{"type":"Feature","geometry":{"type":"Point","coordinates":[-76.86808,38.89384]},"properties":{"name":"Morgan Boulevard","lines":"blue, silver"}}]}